     2.11           N: GPS NAV DATA                         RINEX VERSION / TYPE
teqc  2019Feb25                         20221121 12:25:20UTCPGM / RUN BY / DATE
OSX ker:10.11.6|Core i5|gcc 4.3 -m64|OSX ker:10.10+|=+      COMMENT
    4.6566D-09  1.4901D-08 -5.9605D-08 -1.1921D-07          ION ALPHA
    7.9872D+04  8.1920D+04 -6.5536D+04 -4.5875D+05          ION BETA
   -2.793967723846D-09-1.332267629550D-14    61440     1541 DELTA-UTC: A0,A1,T,W
                                                            END OF HEADER
 8 09  7 17 23 59 28.0-2.123997546732D-04-1.818989403546D-12 0.000000000000D+00
    1.650000000000D+02-9.918750000000D+01 3.798372503175D-09-3.414210659007D-01
   -5.243346095085D-06 1.072978950106D-02 7.454305887222D-06 5.153636466980D+03
    5.183680000000D+05 1.844018697739D-07 1.928129340521D+00-6.519258022308D-08
    9.891076246228D-01 2.465312500000D+02 2.998702729994D+00-7.842826685212D-09
    1.225051028293D-10 1.000000000000D+00 1.540000000000D+03 0.000000000000D+00
    2.000000000000D+00 0.000000000000D+00-3.725290298462D-09 1.650000000000D+02
    5.112180000000D+05 4.000000000000D+00
27 09  7 17 23 59 44.0 6.649596616626D-05 3.183231456205D-12 0.000000000000D+00
    3.000000000000D+00-1.338750000000D+02 3.949450224740D-09 2.758476839553D+00
   -6.999820470810D-06 2.129481511656D-02 6.748363375664D-06 5.153773244858D+03
    5.183840000000D+05 2.887099981308D-07 1.808821063881D+00-1.192092895508D-07
    9.748035832249D-01 2.555625000000D+02-1.571523234696D+00-7.543528503956D-09
   -3.142988060926D-11 1.000000000000D+00 1.540000000000D+03 0.000000000000D+00
    2.000000000000D+00 0.000000000000D+00-4.190951585770D-09 3.000000000000D+00
    5.173920000000D+05 4.000000000000D+00
28 09  7 17 23 59 44.0-2.596434205770D-05-1.136868377216D-13 0.000000000000D+00
    0.000000000000D+00-2.921875000000D+01 4.389468553270D-09-2.645681519552D+00
   -1.687556505203D-06 1.493773609400D-02 9.376555681229D-06 5.153649084091D+03
    5.183840000000D+05 2.402812242508D-07 2.944219042290D+00-6.705522537231D-08
    9.674568495925D-01 1.981875000000D+02-2.021552589597D+00-7.605673949706D-09
    6.332406627297D-10 1.000000000000D+00 1.540000000000D+03 0.000000000000D+00
    2.000000000000D+00 0.000000000000D+00-1.071020960808D-08 0.000000000000D+00
    5.164560000000D+05 4.000000000000D+00
